[{"OBJECT_NAME":"CAPELLA-15 (ACADIA-5)","OBJECT_ID":"2024-149CE","EPOCH":"2026-03-09T18:13:05.415744","MEAN_MOTION":14.92454898,"ECCENTRICITY":0.00037705,"INCLINATION":97.685,"RA_OF_ASC_NODE":144.113,"ARG_OF_PERICENTER":66.1568,"MEAN_ANOMALY":294.0046,"EPHEMERIS_TYPE":0,"CLASSIFICATION_TYPE":"U","NORAD_CAT_ID":60544,"ELEMENT_SET_NO":999,"REV_AT_EPOCH":8502,"BSTAR":-0.00025394836,"MEAN_MOTION_DOT":-2.656e-5,"MEAN_MOTION_DDOT":0},{"OBJECT_NAME":"COSMOS 2251 DEB","OBJECT_ID":"1993-036BVZ","EPOCH":"2026-03-05T00:56:00.979008","MEAN_MOTION":14.83036639,"ECCENTRICITY":0.00524286,"INCLINATION":74.0151,"RA_OF_ASC_NODE":339.2252,"ARG_OF_PERICENTER":96.1915,"MEAN_ANOMALY":281.2414,"EPHEMERIS_TYPE":0,"CLASSIFICATION_TYPE":"U","NORAD_CAT_ID":40796,"ELEMENT_SET_NO":999,"REV_AT_EPOCH":77378,"BSTAR":0.0010636969,"MEAN_MOTION_DOT":8.84e-5,"MEAN_MOTION_DDOT":0}]
